[{"OBJECT_NAME":"SAUDISAT 1C (SO-50)","OBJECT_ID":"2002-058C","EPOCH":"2026-03-09T14:49:05.437056","MEAN_MOTION":14.82783142,"ECCENTRICITY":0.0075248,"INCLINATION":64.5524,"RA_OF_ASC_NODE":76.9957,"ARG_OF_PERICENTER":280.7497,"MEAN_ANOMALY":78.5144,"EPHEMERIS_TYPE":0,"CLASSIFICATION_TYPE":"U","NORAD_CAT_ID":27607,"ELEMENT_SET_NO":999,"REV_AT_EPOCH":24969,"BSTAR":0.00027919,"MEAN_MOTION_DOT":2.222e-5,"MEAN_MOTION_DDOT":0},{"OBJECT_NAME":"CHUANGXIN-3 (CX-3)","OBJECT_ID":"2013-037B","EPOCH":"2026-03-09T23:41:48.559776","MEAN_MOTION":14.74394744,"ECCENTRICITY":0.00055411,"INCLINATION":98.084,"RA_OF_ASC_NODE":75.4374,"ARG_OF_PERICENTER":91.0798,"MEAN_ANOMALY":269.1045,"EPHEMERIS_TYPE":0,"CLASSIFICATION_TYPE":"U","NORAD_CAT_ID":39209,"ELEMENT_SET_NO":999,"REV_AT_EPOCH":67773,"BSTAR":0.00024158213,"MEAN_MOTION_DOT":1.551e-5,"MEAN_MOTION_DDOT":0}]
